BLUEBON                 
1 62688U 25009CH  26068.70316231  .00010452  00000+0  37313-3 0  9992
2 62688  97.4017 152.2033 0001193  43.3900 316.7434 15.29047253 63767
STARLINK-32929          
1 63021U 25032S   26068.13819920  .00032135  00000+0  11722-2 0  9997
2 63021  43.0033 339.3401 0001609 273.9739  86.0929 15.27578336 60531
